{
  "norad_id": 63705,
  "name": "STARLINK-33848",
  "history": [
    {
      "epoch": "2026-03-28T20:08:03.214176",
      "apogee_km": 476.21481011103697,
      "perigee_km": 474.16950255762185,
      "latitude_deg": 53.04804550317107,
      "longitude_deg": -88.96309535996988,
      "semi_major_axis_km": 6853.329156334329,
      "eccentricity": 0.00014922,
      "inclination_deg": 53.1604,
      "raan_deg": 130.4516,
      "arg_perigee_deg": 87.0809,
      "mean_anomaly_deg": 273.0363,
      "mean_motion_rev_day": 15.30207674
    }
  ]
}