{"fetched_at":"2026-03-29T16:36:15Z","count":15609,"tles":[{"name":"STARLINK-33848","line1":"1 63705U 25087J   26087.83892609  .00021004  00000+0  71912-3 0  9990","line2":"2 63705  53.1604 130.4516 0001492  87.0809 273.0363 15.30207674 52129","category":"Starlink"}]}